[{"OBJECT_NAME":"ONEWEB-0645","OBJECT_ID":"2023-029P","EPOCH":"2025-07-30T22:18:39.974976","MEAN_MOTION":13.19724468,"ECCENTRICITY":0.000216,"INCLINATION":87.9222,"RA_OF_ASC_NODE":8.8529,"ARG_OF_PERICENTER":91.4203,"MEAN_ANOMALY":268.7177,"EPHEMERIS_TYPE":0,"CLASSIFICATION_TYPE":"U","NORAD_CAT_ID":55809,"ELEMENT_SET_NO":999,"REV_AT_EPOCH":11653,"BSTAR":0.00016157,"MEAN_MOTION_DOT":7.8e-7,"MEAN_MOTION_DDOT":0},{"OBJECT_NAME":"ONEWEB-0646","OBJECT_ID":"2023-029Q","EPOCH":"2025-07-30T21:12:42.956064","MEAN_MOTION":13.19725049,"ECCENTRICITY":0.0001802,"INCLINATION":87.9222,"RA_OF_ASC_NODE":8.8533,"ARG_OF_PERICENTER":86.2384,"MEAN_ANOMALY":273.8955,"EPHEMERIS_TYPE":0,"CLASSIFICATION_TYPE":"U","NORAD_CAT_ID":55810,"ELEMENT_SET_NO":999,"REV_AT_EPOCH":11651,"BSTAR":-7.4853e-5,"MEAN_MOTION_DOT":-1.7e-7,"MEAN_MOTION_DDOT":0},{"OBJECT_NAME":"ONEWEB-0648","OBJECT_ID":"2023-029R","EPOCH":"2025-07-30T21:29:17.545344","MEAN_MOTION":13.14501801,"ECCENTRICITY":0.0002563,"INCLINATION":87.9064,"RA_OF_ASC_NODE":353.6448,"ARG_OF_PERICENTER":80.0383,"MEAN_ANOMALY":280.1036,"EPHEMERIS_TYPE":0,"CLASSIFICATION_TYPE":"U","NORAD_CAT_ID":55811,"ELEMENT_SET_NO":999,"REV_AT_EPOCH":11718,"BSTAR":-0.00040406,"MEAN_MOTION_DOT":-1.37e-6,"MEAN_MOTION_DDOT":0},{"OBJECT_NAME":"ONEWEB-0649","OBJECT_ID":"2023-029S","EPOCH":"2025-07-30T22:08:25.217376","MEAN_MOTION":13.19726614,"ECCENTRICITY":0.000219,"INCLINATION":87.9231,"RA_OF_ASC_NODE":8.839,"ARG_OF_PERICENTER":84.5161,"MEAN_ANOMALY":275.6221,"EPHEMERIS_TYPE":0,"CLASSIFICATION_TYPE":"U","NORAD_CAT_ID":55812,"ELEMENT_SET_NO":999,"REV_AT_EPOCH":11655,"BSTAR":0.00010966,"MEAN_MOTION_DOT":5.7e-7,"MEAN_MOTION_DDOT":0},{"OBJECT_NAME":"ONEWEB-0650","OBJECT_ID":"2023-029T","EPOCH":"2025-07-30T22:01:35.578560","MEAN_MOTION":13.19726772,"ECCENTRICITY":0.0001876,"INCLINATION":87.9238,"RA_OF_ASC_NODE":8.8506,"ARG_OF_PERICENTER":87.9908,"MEAN_ANOMALY":272.1439,"EPHEMERIS_TYPE":0,"CLASSIFICATION_TYPE":"U","NORAD_CAT_ID":55813,"ELEMENT_SET_NO":999,"REV_AT_EPOCH":11652,"BSTAR":6.5379e-5,"MEAN_MOTION_DOT":3.9e-7,"MEAN_MOTION_DDOT":0},{"OBJECT_NAME":"ONEWEB-0652","OBJECT_ID":"2023-029U","EPOCH":"2025-07-30T22:51:28.387296","MEAN_MOTION":13.14503935,"ECCENTRICITY":0.0001741,"INCLINATION":87.9072,"RA_OF_ASC_NODE":353.6439,"ARG_OF_PERICENTER":101.1864,"MEAN_ANOMALY":258.9461,"EPHEMERIS_TYPE":0,"CLASSIFICATION_TYPE":"U","NORAD_CAT_ID":55814,"ELEMENT_SET_NO":999,"REV_AT_EPOCH":11716,"BSTAR":-0.00046363,"MEAN_MOTION_DOT":-1.59e-6,"MEAN_MOTION_DDOT":0},{"OBJECT_NAME":"ONEWEB-0653","OBJECT_ID":"2023-029V","EPOCH":"2025-07-30T22:28:39.451872","MEAN_MOTION":13.14501356,"ECCENTRICITY":0.0001943,"INCLINATION":87.9071,"RA_OF_ASC_NODE":353.637,"ARG_OF_PERICENTER":102.294,"MEAN_ANOMALY":257.8407,"EPHEMERIS_TYPE":0,"CLASSIFICATION_TYPE":"U","NORAD_CAT_ID":55815,"ELEMENT_SET_NO":999,"REV_AT_EPOCH":11719,"BSTAR":0.00018543,"MEAN_MOTION_DOT":8.2e-7,"MEAN_MOTION_DDOT":0},{"OBJECT_NAME":"ONEWEB-0654","OBJECT_ID":"2023-029W","EPOCH":"2025-07-30T22:21:48.144672","MEAN_MOTION":13.14501492,"ECCENTRICITY":0.0001763,"INCLINATION":87.9066,"RA_OF_ASC_NODE":353.6371,"ARG_OF_PERICENTER":109.6548,"MEAN_ANOMALY":250.4772,"EPHEMERIS_TYPE":0,"CLASSIFICATION_TYPE":"U","NORAD_CAT_ID":55816,"ELEMENT_SET_NO":999,"REV_AT_EPOCH":11721,"BSTAR":0.00029024,"MEAN_MOTION_DOT":1.2e-6,"MEAN_MOTION_DDOT":0},{"OBJECT_NAME":"ONEWEB-0656","OBJECT_ID":"2023-029X","EPOCH":"2025-07-30T22:04:07.667616","MEAN_MOTION":13.20770021,"ECCENTRICITY":0.0001829,"INCLINATION":87.9294,"RA_OF_ASC_NODE":338.4282,"ARG_OF_PERICENTER":113.5154,"MEAN_ANOMALY":246.6172,"EPHEMERIS_TYPE":0,"CLASSIFICATION_TYPE":"U","NORAD_CAT_ID":55817,"ELEMENT_SET_NO":999,"REV_AT_EPOCH":11874,"BSTAR":0.00013059,"MEAN_MOTION_DOT":6.6e-7,"MEAN_MOTION_DDOT":0},{"OBJECT_NAME":"ONEWEB-0657","OBJECT_ID":"2023-029Y","EPOCH":"2025-07-30T21:54:46.884960","MEAN_MOTION":13.19726916,"ECCENTRICITY":0.0001069,"INCLINATION":87.9234,"RA_OF_ASC_NODE":8.8556,"ARG_OF_PERICENTER":100.7566,"MEAN_ANOMALY":259.3687,"EPHEMERIS_TYPE":0,"CLASSIFICATION_TYPE":"U","NORAD_CAT_ID":55818,"ELEMENT_SET_NO":999,"REV_AT_EPOCH":11653,"BSTAR":0.00020649,"MEAN_MOTION_DOT":9.6e-7,"MEAN_MOTION_DDOT":0},{"OBJECT_NAME":"ONEWEB-0658","OBJECT_ID":"2023-029Z","EPOCH":"2025-07-30T21:47:56.800320","MEAN_MOTION":13.1972671,"ECCENTRICITY":0.0001966,"INCLINATION":87.9241,"RA_OF_ASC_NODE":8.7908,"ARG_OF_PERICENTER":79.74,"MEAN_ANOMALY":280.3955,"EPHEMERIS_TYPE":0,"CLASSIFICATION_TYPE":"U","NORAD_CAT_ID":55819,"ELEMENT_SET_NO":999,"REV_AT_EPOCH":11654,"BSTAR":-3.6931e-5,"MEAN_MOTION_DOT":-2.0e-8,"MEAN_MOTION_DDOT":0},{"OBJECT_NAME":"ONEWEB-0660","OBJECT_ID":"2023-029AA","EPOCH":"2025-07-30T21:49:49.941984","MEAN_MOTION":13.14501658,"ECCENTRICITY":0.0002154,"INCLINATION":87.9067,"RA_OF_ASC_NODE":353.6124,"ARG_OF_PERICENTER":94.3924,"MEAN_ANOMALY":265.7452,"EPHEMERIS_TYPE":0,"CLASSIFICATION_TYPE":"U","NORAD_CAT_ID":55820,"ELEMENT_SET_NO":999,"REV_AT_EPOCH":11719,"BSTAR":0.00022466,"MEAN_MOTION_DOT":9.6e-7,"MEAN_MOTION_DDOT":0},{"OBJECT_NAME":"ONEWEB-0661","OBJECT_ID":"2023-029AB","EPOCH":"2025-07-30T22:40:04.080288","MEAN_MOTION":13.14501366,"ECCENTRICITY":0.0002179,"INCLINATION":87.9069,"RA_OF_ASC_NODE":353.677,"ARG_OF_PERICENTER":96.7045,"MEAN_ANOMALY":263.4332,"EPHEMERIS_TYPE":0,"CLASSIFICATION_TYPE":"U","NORAD_CAT_ID":55821,"ELEMENT_SET_NO":999,"REV_AT_EPOCH":11718,"BSTAR":-0.00014499,"MEAN_MOTION_DOT":-4.1e-7,"MEAN_MOTION_DDOT":0},{"OBJECT_NAME":"ONEWEB-0662","OBJECT_ID":"2023-029AC","EPOCH":"2025-07-30T19:51:04.983264","MEAN_MOTION":13.14501923,"ECCENTRICITY":0.0002168,"INCLINATION":87.907,"RA_OF_ASC_NODE":353.7071,"ARG_OF_PERICENTER":92.2259,"MEAN_ANOMALY":267.9119,"EPHEMERIS_TYPE":0,"CLASSIFICATION_TYPE":"U","NORAD_CAT_ID":55822,"ELEMENT_SET_NO":999,"REV_AT_EPOCH":11721,"BSTAR":0.00012849,"MEAN_MOTION_DOT":6.0e-7,"MEAN_MOTION_DDOT":0},{"OBJECT_NAME":"ONEWEB-0663","OBJECT_ID":"2023-029AD","EPOCH":"2025-07-30T19:44:31.801056","MEAN_MOTION":13.20841448,"ECCENTRICITY":0.0002234,"INCLINATION":87.9304,"RA_OF_ASC_NODE":338.5024,"ARG_OF_PERICENTER":90.4673,"MEAN_ANOMALY":269.6716,"EPHEMERIS_TYPE":0,"CLASSIFICATION_TYPE":"U","NORAD_CAT_ID":55823,"ELEMENT_SET_NO":999,"REV_AT_EPOCH":11872,"BSTAR":-2.8155e-5,"MEAN_MOTION_DOT":2.0e-8,"MEAN_MOTION_DDOT":0},{"OBJECT_NAME":"ONEWEB-0664","OBJECT_ID":"2023-029AE","EPOCH":"2025-07-30T21:45:57.953664","MEAN_MOTION":13.20771731,"ECCENTRICITY":0.0002189,"INCLINATION":87.9296,"RA_OF_ASC_NODE":338.5079,"ARG_OF_PERICENTER":106.0334,"MEAN_ANOMALY":254.1041,"EPHEMERIS_TYPE":0,"CLASSIFICATION_TYPE":"U","NORAD_CAT_ID":55824,"ELEMENT_SET_NO":999,"REV_AT_EPOCH":11873,"BSTAR":8.1304e-5,"MEAN_MOTION_DOT":4.6e-7,"MEAN_MOTION_DDOT":0},{"OBJECT_NAME":"ONEWEB-0665","OBJECT_ID":"2023-029AF","EPOCH":"2025-07-30T22:35:30.494688","MEAN_MOTION":13.1450334,"ECCENTRICITY":0.0002041,"INCLINATION":87.9072,"RA_OF_ASC_NODE":353.652,"ARG_OF_PERICENTER":92.0767,"MEAN_ANOMALY":268.0597,"EPHEMERIS_TYPE":0,"CLASSIFICATION_TYPE":"U","NORAD_CAT_ID":55825,"ELEMENT_SET_NO":999,"REV_AT_EPOCH":11720,"BSTAR":-7.9679e-6,"MEAN_MOTION_DOT":1.0e-7,"MEAN_MOTION_DDOT":0},{"OBJECT_NAME":"ONEWEB-0666","OBJECT_ID":"2023-029AG","EPOCH":"2025-07-30T19:47:46.571712","MEAN_MOTION":13.20772663,"ECCENTRICITY":0.0001168,"INCLINATION":87.9294,"RA_OF_ASC_NODE":338.5127,"ARG_OF_PERICENTER":109.8833,"MEAN_ANOMALY":250.2426,"EPHEMERIS_TYPE":0,"CLASSIFICATION_TYPE":"U","NORAD_CAT_ID":55826,"ELEMENT_SET_NO":999,"REV_AT_EPOCH":11873,"BSTAR":0.00012366,"MEAN_MOTION_DOT":6.3e-7,"MEAN_MOTION_DDOT":0},{"OBJECT_NAME":"ONEWEB-0667","OBJECT_ID":"2023-029AH","EPOCH":"2025-07-30T21:27:47.175264","MEAN_MOTION":13.20771637,"ECCENTRICITY":0.0002107,"INCLINATION":87.929,"RA_OF_ASC_NODE":338.4284,"ARG_OF_PERICENTER":97.6773,"MEAN_ANOMALY":262.4599,"EPHEMERIS_TYPE":0,"CLASSIFICATION_TYPE":"U","NORAD_CAT_ID":55827,"ELEMENT_SET_NO":999,"REV_AT_EPOCH":11873,"BSTAR":-0.00011011,"MEAN_MOTION_DOT":-3.2e-7,"MEAN_MOTION_DDOT":0},{"OBJECT_NAME":"ONEWEB-0669","OBJECT_ID":"2023-029AJ","EPOCH":"2025-07-30T21:20:57.823296","MEAN_MOTION":13.20771004,"ECCENTRICITY":0.0001971,"INCLINATION":87.9294,"RA_OF_ASC_NODE":338.4669,"ARG_OF_PERICENTER":119.5777,"MEAN_ANOMALY":240.5553,"EPHEMERIS_TYPE":0,"CLASSIFICATION_TYPE":"U","NORAD_CAT_ID":55828,"ELEMENT_SET_NO":999,"REV_AT_EPOCH":11873,"BSTAR":6.0133e-5,"MEAN_MOTION_DOT":3.7e-7,"MEAN_MOTION_DDOT":0},{"OBJECT_NAME":"ONEWEB-0670","OBJECT_ID":"2023-029AK","EPOCH":"2025-07-30T22:03:31.828032","MEAN_MOTION":13.14503802,"ECCENTRICITY":0.0002238,"INCLINATION":87.9075,"RA_OF_ASC_NODE":353.6758,"ARG_OF_PERICENTER":100.1983,"MEAN_ANOMALY":259.9399,"EPHEMERIS_TYPE":0,"CLASSIFICATION_TYPE":"U","NORAD_CAT_ID":55829,"ELEMENT_SET_NO":999,"REV_AT_EPOCH":11722,"BSTAR":0.0007816,"MEAN_MOTION_DOT":3.03e-6,"MEAN_MOTION_DDOT":0},{"OBJECT_NAME":"ONEWEB-0671","OBJECT_ID":"2023-029AL","EPOCH":"2025-07-30T19:51:57.781440","MEAN_MOTION":13.19726,"ECCENTRICITY":0.0002047,"INCLINATION":87.9233,"RA_OF_ASC_NODE":8.8655,"ARG_OF_PERICENTER":94.4711,"MEAN_ANOMALY":265.6655,"EPHEMERIS_TYPE":0,"CLASSIFICATION_TYPE":"U","NORAD_CAT_ID":55830,"ELEMENT_SET_NO":999,"REV_AT_EPOCH":11651,"BSTAR":-7.8571e-5,"MEAN_MOTION_DOT":-1.9e-7,"MEAN_MOTION_DDOT":0},{"OBJECT_NAME":"ONEWEB-0672","OBJECT_ID":"2023-029AM","EPOCH":"2025-07-30T21:14:07.191744","MEAN_MOTION":13.20773205,"ECCENTRICITY":0.0001626,"INCLINATION":87.9295,"RA_OF_ASC_NODE":338.4537,"ARG_OF_PERICENTER":105.2448,"MEAN_ANOMALY":254.8865,"EPHEMERIS_TYPE":0,"CLASSIFICATION_TYPE":"U","NORAD_CAT_ID":55831,"ELEMENT_SET_NO":999,"REV_AT_EPOCH":11873,"BSTAR":-2.3863e-6,"MEAN_MOTION_DOT":1.2e-7,"MEAN_MOTION_DDOT":0},{"OBJECT_NAME":"ONEWEB-0673","OBJECT_ID":"2023-029AN","EPOCH":"2025-07-30T21:07:01.340832","MEAN_MOTION":13.19725061,"ECCENTRICITY":0.0001883,"INCLINATION":87.9239,"RA_OF_ASC_NODE":8.8185,"ARG_OF_PERICENTER":87.39,"MEAN_ANOMALY":272.7448,"EPHEMERIS_TYPE":0,"CLASSIFICATION_TYPE":"U","NORAD_CAT_ID":55832,"ELEMENT_SET_NO":999,"REV_AT_EPOCH":11652,"BSTAR":-6.2791e-6,"MEAN_MOTION_DOT":1.0e-7,"MEAN_MOTION_DDOT":0}]
